start=new Date('2022-07-21T00:00:00.000Z').valueOf();
sats=[{"MEAN_ANOMALY":"290.1890","ELEMENT_SET_NO":"999","MEAN_ELEMENT_THEORY":"SGP4","FILE":"3518363","EPHEMERIS_TYPE":"0","NORAD_CAT_ID":"47373","APOAPSIS":"548.241","OBJECT_NAME":"STARLINK-2092","RA_OF_ASC_NODE":"263.8174","GP_ID":"208534352","CENTER_NAME":"EARTH","TLE_LINE2":"2 47373  53.0534 263.8174 0001515  69.9262 290.1890 15.06407252 82868","MEAN_MOTION":"15.06407252","DECAY_DATE":null,"REF_FRAME":"TEME","TIME_SYSTEM":"UTC","MEAN_MOTION_DDOT":"0.0000000000000","OBJECT_TYPE":"PAYLOAD","PERIAPSIS":"546.142","BSTAR":"0.00035130000000","MEAN_MOTION_DOT":"0.00004956","ARG_OF_PERICENTER":"69.9262","RCS_SIZE":"LARGE","SEMIMAJOR_AXIS":"6925.326","LAUNCH_DATE":"2021-01-20","INCLINATION":"53.0534","COUNTRY_CODE":"US","OBJECT_ID":"2021-005AA","EPOCH":"2022-07-20T13:26:34.894176","ECCENTRICITY":"0.00015150","PERIOD":"95.592","REV_AT_EPOCH":"8286","CLASSIFICATION_TYPE":"U","SITE":"AFETR","TLE_LINE1":"1 47373U 21005AA  22201.56012609  .00004956  00000-0  35130-3 0  9997"},{"TIME_SYSTEM":"UTC","REF_FRAME":"TEME","MEAN_MOTION_DDOT":"0.0000000000000","MEAN_MOTION":"15.06408167","DECAY_DATE":null,"TLE_LINE2":"2 47374  53.0523 263.7178 0001559  62.6410 297.4737 15.06408167 82869","CENTER_NAME":"EARTH","GP_ID":"208508954","RA_OF_ASC_NODE":"263.7178","OBJECT_NAME":"STARLINK-2093","APOAPSIS":"548.268","NORAD_CAT_ID":"47374","EPHEMERIS_TYPE":"0","FILE":"3518209","ELEMENT_SET_NO":"999","MEAN_ANOMALY":"297.4737","MEAN_ELEMENT_THEORY":"SGP4","SITE":"AFETR","CLASSIFICATION_TYPE":"U","TLE_LINE1":"1 47374U 21005AB  22201.58127803  .00004676  00000-0  33253-3 0  9996","REV_AT_EPOCH":"8286","ECCENTRICITY":"0.00015590","PERIOD":"95.592","OBJECT_ID":"2021-005AB","EPOCH":"2022-07-20T13:57:02.421792","COUNTRY_CODE":"US","INCLINATION":"53.0523","SEMIMAJOR_AXIS":"6925.324","LAUNCH_DATE":"2021-01-20","RCS_SIZE":"LARGE","ARG_OF_PERICENTER":"62.6410","OBJECT_TYPE":"PAYLOAD","PERIAPSIS":"546.109","MEAN_MOTION_DOT":"0.00004676","BSTAR":"0.00033253000000"},{"SEMIMAJOR_AXIS":"6925.327","LAUNCH_DATE":"2021-01-20","ARG_OF_PERICENTER":"60.6869","OBJECT_TYPE":"PAYLOAD","PERIAPSIS":"546.266","MEAN_MOTION_DOT":"0.00004471","BSTAR":"0.00031881000000","RCS_SIZE":"LARGE","PERIOD":"95.592","ECCENTRICITY":"0.00013370","EPOCH":"2022-07-20T14:03:43.225344","OBJECT_ID":"2021-005AC","SITE":"AFETR","CLASSIFICATION_TYPE":"U","TLE_LINE1":"1 47375U 21005AC  22201.58591696  .00004471  00000-0  31881-3 0  9990","REV_AT_EPOCH":"8286","COUNTRY_CODE":"US","INCLINATION":"53.0523","APOAPSIS":"548.118","RA_OF_ASC_NODE":"263.7119","OBJECT_NAME":"STARLINK-2094","FILE":"3518363","MEAN_ANOMALY":"299.4253","ELEMENT_SET_NO":"999","MEAN_ELEMENT_THEORY":"SGP4","NORAD_CAT_ID":"47375","EPHEMERIS_TYPE":"0","TIME_SYSTEM":"UTC","REF_FRAME":"TEME","MEAN_MOTION_DDOT":"0.0000000000000","DECAY_DATE":null,"MEAN_MOTION":"15.06407044","TLE_LINE2":"2 47375  53.0523 263.7119 0001337  60.6869 299.4253 15.06407044 82863","CENTER_NAME":"EARTH","GP_ID":"208533851"},{"GP_ID":"208534102","TLE_LINE2":"2 47376  53.0530 263.3969 0001547  64.1705 295.9443 15.06406401 82871","CENTER_NAME":"EARTH","MEAN_MOTION":"15.06406401","DECAY_DATE":null,"TIME_SYSTEM":"UTC","REF_FRAME":"TEME","MEAN_MOTION_DDOT":"0.0000000000000","EPHEMERIS_TYPE":"0","NORAD_CAT_ID":"47376","MEAN_ANOMALY":"295.9443","ELEMENT_SET_NO":"999","MEAN_ELEMENT_THEORY":"SGP4","FILE":"3518363","OBJECT_NAME":"STARLINK-2096","RA_OF_ASC_NODE":"263.3969","APOAPSIS":"548.265","INCLINATION":"53.0530","COUNTRY_CODE":"US","REV_AT_EPOCH":"8287","CLASSIFICATION_TYPE":"U","SITE":"AFETR","TLE_LINE1":"1 47376U 21005AD  22201.65596883  .00004869  00000-0  34548-3 0  9996","EPOCH":"2022-07-20T15:44:35.706912","OBJECT_ID":"2021-005AD","ECCENTRICITY":"0.00015470","PERIOD":"95.592","RCS_SIZE":"LARGE","PERIAPSIS":"546.123","OBJECT_TYPE":"PAYLOAD","BSTAR":"0.00034548000000","MEAN_MOTION_DOT":"0.00004869","ARG_OF_PERICENTER":"64.1705","SEMIMAJOR_AXIS":"6925.329","LAUNCH_DATE":"2021-01-20"},{"INCLINATION":"53.0524","COUNTRY_CODE":"US","REV_AT_EPOCH":"8287","SITE":"AFETR","CLASSIFICATION_TYPE":"U","TLE_LINE1":"1 47377U 21005AE  22201.64120145  .00001885  00000-0  14541-3 0  9996","OBJECT_ID":"2021-005AE","EPOCH":"2022-07-20T15:23:19.805280","ECCENTRICITY":"0.00013980","PERIOD":"95.592","RCS_SIZE":"LARGE","OBJECT_TYPE":"PAYLOAD","PERIAPSIS":"546.242","BSTAR":"0.00014541000000","MEAN_MOTION_DOT":"0.00001885","ARG_OF_PERICENTER":"76.7691","SEMIMAJOR_AXIS":"6925.346","LAUNCH_DATE":"2021-01-20","GP_ID":"208534853","CENTER_NAME":"EARTH","TLE_LINE2":"2 47377  53.0524 263.4702 0001398  76.7691 283.3454 15.06400966 82871","MEAN_MOTION":"15.06400966","DECAY_DATE":null,"TIME_SYSTEM":"UTC","REF_FRAME":"TEME","MEAN_MOTION_DDOT":"0.0000000000000","EPHEMERIS_TYPE":"0","NORAD_CAT_ID":"47377","ELEMENT_SET_NO":"999","MEAN_ANOMALY":"283.3454","MEAN_ELEMENT_THEORY":"SGP4","FILE":"3518363","OBJECT_NAME":"STARLINK-2097","RA_OF_ASC_NODE":"263.4702","APOAPSIS":"548.179"},{"COUNTRY_CODE":"US","INCLINATION":"53.0544","PERIOD":"95.592","ECCENTRICITY":"0.00015010","OBJECT_ID":"2021-005AF","EPOCH":"2022-07-20T18:23:47.931072","TLE_LINE1":"1 47378U 21005AF  22201.76652698  .00000255  00000-0  35997-4 0  9992","CLASSIFICATION_TYPE":"U","SITE":"AFETR","REV_AT_EPOCH":"8345","ARG_OF_PERICENTER":"62.2591","OBJECT_TYPE":"PAYLOAD","PERIAPSIS":"546.178","MEAN_MOTION_DOT":"0.00000255","BSTAR":"0.00003599700000","RCS_SIZE":"LARGE","LAUNCH_DATE":"2021-01-20","SEMIMAJOR_AXIS":"6925.353","TLE_LINE2":"2 47378  53.0544 222.9081 0001501  62.2591 297.8550 15.06398693 83454","CENTER_NAME":"EARTH","GP_ID":"208533601","MEAN_MOTION_DDOT":"0.0000000000000","TIME_SYSTEM":"UTC","REF_FRAME":"TEME","DECAY_DATE":null,"MEAN_MOTION":"15.06398693","FILE":"3518363","MEAN_ELEMENT_THEORY":"SGP4","ELEMENT_SET_NO":"999","MEAN_ANOMALY":"297.8550","NORAD_CAT_ID":"47378","EPHEMERIS_TYPE":"0","APOAPSIS":"548.257","RA_OF_ASC_NODE":"222.9081","OBJECT_NAME":"STARLINK-2098"},{"ARG_OF_PERICENTER":"59.3935","BSTAR":"0.00011108000000","OBJECT_TYPE":"PAYLOAD","PERIAPSIS":"546.014","MEAN_MOTION_DOT":"0.00001374","RCS_SIZE":"LARGE","LAUNCH_DATE":"2021-01-20","SEMIMAJOR_AXIS":"6925.335","COUNTRY_CODE":"US","INCLINATION":"53.0533","ECCENTRICITY":"0.00017120","PERIOD":"95.592","EPOCH":"2022-07-20T18:34:24.531456","OBJECT_ID":"2021-005AG","TLE_LINE1":"1 47379U 21005AG  22201.77389504  .00001374  00000-0  11108-3 0  9997","CLASSIFICATION_TYPE":"U","SITE":"AFETR","REV_AT_EPOCH":"8345","FILE":"3518363","MEAN_ELEMENT_THEORY":"SGP4","ELEMENT_SET_NO":"999","MEAN_ANOMALY":"300.7223","NORAD_CAT_ID":"47379","EPHEMERIS_TYPE":"0","APOAPSIS":"548.385","RA_OF_ASC_NODE":"222.8713","OBJECT_NAME":"STARLINK-2099","TLE_LINE2":"2 47379  53.0533 222.8713 0001712  59.3935 300.7223 15.06404520 83455","CENTER_NAME":"EARTH","GP_ID":"208533351","MEAN_MOTION_DDOT":"0.0000000000000","REF_FRAME":"TEME","TIME_SYSTEM":"UTC","MEAN_MOTION":"15.06404520","DECAY_DATE":null},{"MEAN_ELEMENT_THEORY":"SGP4","ELEMENT_SET_NO":"999","MEAN_ANOMALY":"302.4754","FILE":"3518013","EPHEMERIS_TYPE":"0","NORAD_CAT_ID":"47380","APOAPSIS":"548.226","OBJECT_NAME":"STARLINK-2100","RA_OF_ASC_NODE":"234.2141","GP_ID":"208479300","CENTER_NAME":"EARTH","TLE_LINE2":"2 47380  53.0530 234.2141 0001476  57.6377 302.4754 15.06403204 84215","DECAY_DATE":null,"MEAN_MOTION":"15.06403204","MEAN_MOTION_DDOT":"0.0000000000000","TIME_SYSTEM":"UTC","REF_FRAME":"TEME","OBJECT_TYPE":"PAYLOAD","BSTAR":"0.00020641000000","PERIAPSIS":"546.182","MEAN_MOTION_DOT":"0.00002795","ARG_OF_PERICENTER":"57.6377","RCS_SIZE":"LARGE","LAUNCH_DATE":"2021-01-20","SEMIMAJOR_AXIS":"6925.339","INCLINATION":"53.0530","COUNTRY_CODE":"US","OBJECT_ID":"2021-005AH","EPOCH":"2022-07-20T11:17:50.698752","ECCENTRICITY":"0.00014760","PERIOD":"95.592","REV_AT_EPOCH":"8421","TLE_LINE1":"1 47380U 21005AH  22201.47072568  .00002795  00000-0  20641-3 0  9995","CLASSIFICATION_TYPE":"U","SITE":"AFETR"},{"OBJECT_TYPE":"PAYLOAD","MEAN_MOTION_DOT":"0.00004066","PERIAPSIS":"545.925","BSTAR":"0.00029172000000","ARG_OF_PERICENTER":"53.4145","RCS_SIZE":"LARGE","SEMIMAJOR_AXIS":"6925.355","LAUNCH_DATE":"2021-01-20","INCLINATION":"53.0534","COUNTRY_CODE":"US","OBJECT_ID":"2021-005AJ","EPOCH":"2022-07-20T11:41:06.043200","PERIOD":"95.592","ECCENTRICITY":"0.00018700","REV_AT_EPOCH":"8416","CLASSIFICATION_TYPE":"U","SITE":"AFETR","TLE_LINE1":"1 47381U 21005AJ  22201.48687550  .00004066  00000-0  29172-3 0  9991","MEAN_ANOMALY":"306.7016","ELEMENT_SET_NO":"999","MEAN_ELEMENT_THEORY":"SGP4","FILE":"3518014","EPHEMERIS_TYPE":"0","NORAD_CAT_ID":"47381","APOAPSIS":"548.515","OBJECT_NAME":"STARLINK-2101","RA_OF_ASC_NODE":"239.2365","GP_ID":"208479045","CENTER_NAME":"EARTH","TLE_LINE2":"2 47381  53.0534 239.2365 0001870  53.4145 306.7016 15.06398037 84167","DECAY_DATE":null,"MEAN_MOTION":"15.06398037","REF_FRAME":"TEME","TIME_SYSTEM":"UTC","MEAN_MOTION_DDOT":"0.0000000000000"},{"INCLINATION":"53.0537","COUNTRY_CODE":"US","REV_AT_EPOCH":"8331","TLE_LINE1":"1 47382U 21005AK  22201.79509709  .00001587  00000-0  12545-3 0  9996","CLASSIFICATION_TYPE":"U","SITE":"AFETR","OBJECT_ID":"2021-005AK","EPOCH":"2022-07-20T19:04:56.388576","PERIOD":"95.592","ECCENTRICITY":"0.00014450","RCS_SIZE":"LARGE","OBJECT_TYPE":"PAYLOAD","PERIAPSIS":"546.225","MEAN_MOTION_DOT":"0.00001587","BSTAR":"0.00012545000000","ARG_OF_PERICENTER":"68.5082","LAUNCH_DATE":"2021-01-20","SEMIMAJOR_AXIS":"6925.360","GP_ID":"208533100","TLE_LINE2":"2 47382  53.0537 232.7791 0001445  68.5082 291.6061 15.06396109 83313","CENTER_NAME":"EARTH","MEAN_MOTION":"15.06396109","DECAY_DATE":null,"MEAN_MOTION_DDOT":"0.0000000000000","REF_FRAME":"TEME","TIME_SYSTEM":"UTC","EPHEMERIS_TYPE":"0","NORAD_CAT_ID":"47382","MEAN_ELEMENT_THEORY":"SGP4","ELEMENT_SET_NO":"999","MEAN_ANOMALY":"291.6061","FILE":"3518363","OBJECT_NAME":"STARLINK-2102","RA_OF_ASC_NODE":"232.7791","APOAPSIS":"548.226"}];
